ONEWEB-0429             
1 50500U 21132AH  26155.06083260  .00000078  00000+0  16491-3 0  9991
2 50500  87.9154 338.0716 0001733  94.2239 265.9091 13.18685063219855
ONEWEB-0430             
1 50501U 21132AJ  26155.04902965  .00000103  00000+0  22876-3 0  9995
2 50501  87.9158 338.0725 0001604  96.4261 263.7053 13.18685613219895
ONEWEB-0432             
1 50502U 21132AK  26155.00599003  .00000085  00000+0  18223-3 0  9997
2 50502  87.9181 338.0556 0001575 101.8009 258.3300 13.18683130219844
ONEWEB-0440             
1 50503U 21132AL  26155.06925726 -.00000102  00000+0 -29138-3 0  9998
2 50503  87.9164 338.0634 0001578  81.7730 278.3581 13.18686994219847
ONEWEB-0450             
1 50504U 21132AM  26155.06266460  .00000075  00000+0  15727-3 0  9998
2 50504  87.9153 338.0713 0001621  93.4740 266.6577 13.18687690219876
ONEWEB-0410             
1 51622U 22012A   26155.08031325  .00000004  00000+0 -23418-4 0  9990
2 51622  87.9153   8.4636 0003189  85.9991 274.1505 13.17647396211971
ONEWEB-0411             
1 51623U 22012B   26155.64307289 -.00000049  00000+0 -17604-3 0  9997
2 51623  87.8849  38.7646 0001398  92.1017 268.0270 13.10377973207643
ONEWEB-0415             
1 51624U 22012C   26155.63975542 -.00000210  00000+0 -63921-3 0  9993
2 51624  87.8847  38.7652 0001692  91.8421 268.2900 13.10377720207643
ONEWEB-0416             
1 51625U 22012D   26155.65140940  .00000408  00000+0  11335-2 0  9990
2 51625  87.8846  38.7804 0001941  96.5781 263.5568 13.10388209207686
ONEWEB-0422             
1 51626U 22012E   26155.09044760  .00000048  00000+0  91147-4 0  9993
2 51626  87.9147   8.4625 0001404  66.7619 293.3660 13.17650008212080
ONEWEB-0423             
1 51627U 22012F   26155.08370796  .00000034  00000+0  53143-4 0  9993
2 51627  87.9144   8.4705 0001943  80.5755 279.5596 13.17649252211970
ONEWEB-0425             
1 51628U 22012G   26155.66136568  .00000679  00000+0  19089-2 0  9999
2 51628  87.8841  38.7616 0002181  84.4921 275.6455 13.10374955207686
ONEWEB-0428             
1 51629U 22012H   26155.64141382 -.00000069  00000+0 -23417-3 0  9994
2 51629  87.8861  38.7750 0001726  80.4385 279.6937 13.10377827207648
ONEWEB-0431             
1 51630U 22012J   26155.22960984 -.00000301  00000+0 -89850-3 0  9999
2 51630  87.8841  38.8470 0001267  90.4606 269.6667 13.10370123207646
ONEWEB-0434             
1 51631U 22012K   26155.66481242  .00000683  00000+0  19190-2 0  9993
2 51631  87.8843  38.7856 0002472  80.8376 279.3031 13.10374149207681
ONEWEB-0435             
1 51632U 22012L   26155.67293330  .00003182  00000+0  90730-2 0  9990
2 51632  87.8845  38.7720 0001459  72.8481 287.2806 13.10396385207679
ONEWEB-0436             
1 51633U 22012M   26155.15118965  .00000025  00000+0  30300-4 0  9996
2 51633  87.9153   8.4381 0001620  84.8415 275.2901 13.17650175211967
